SL-14 R/B               
1 16792U 86046B   26082.95183200  .00000475  00000+0  51860-4 0  9994
2 16792  82.4795  66.7017 0023115 176.9661 183.1700 14.85603412128529
SL-14 R/B               
1 16882U 86055B   26082.83303968  .00000407  00000+0  44090-4 0  9998
2 16882  82.5177 113.3778 0017373 286.8009 246.0157 14.85654513121462
AJISAI (EGS)            
1 16908U 86061A   26082.92336358 -.00000106  00000+0 -60053-4 0  9998
2 16908  50.0101  49.5773 0011316 323.7086  76.6828 12.44515658469770
SL-14 R/B               
1 17567U 87024B   26082.71071053  .00000455  00000+0  48967-4 0  9990
2 17567  82.5248  79.5811 0017363 210.0218 150.0005 14.86144680 90217
COSMOS 1833             
1 17589U 87027A   26082.94743805 -.00000274  00000+0 -12063-3 0  9991
2 17589  70.9183 296.0520 0023520 193.7899 166.2582 14.13049773 12330
SL-16 R/B               
1 17590U 87027B   26082.87975662 -.00000196  00000+0 -73595-4 0  9994
2 17590  70.9995 246.5901 0002928 108.8764 251.2678 14.17165995 17350
SL-14 R/B               
1 17912U 87038B   26082.84761652  .00000441  00000+0  48172-4 0  9997
2 17912  82.4980 283.4672 0020621 115.9436 244.3908 14.85381257 81334
COSMOS 1844             
1 17973U 87041A   26082.96745815  .00000254  00000+0  15684-3 0  9997
2 17973  70.9013   4.0608 0030736 357.0907   3.0031 14.14553123  5604
SL-14 R/B               
1 18153U 87055B   26082.95669557  .00000457  00000+0  49851-4 0  9999
2 18153  82.5016 335.5879 0019879 330.3648  29.6440 14.85643586 72052
COSMOS 1867             
1 18187U 87060A   26082.90260102 -.00000041  00000+0  22303-4 0  9993
2 18187  65.0091 266.9005 0014710 279.4803  80.4619 14.31505089 21975
SL-14 R/B               
1 18749U 88001B   26082.81832033  .00000534  00000+0  58874-4 0  9999
2 18749  82.5163 182.0758 0017893 186.9345 173.1627 14.85543219 44121
COSMOS 1933             
1 18958U 88020A   26082.89613023  .00005298  00000+0  25825-3 0  9997
2 18958  82.5121 236.8520 0005032 138.6854 221.4761 15.18114549 52383
