CCSDS_OMM_VERS = 2.0
CREATION_DATE  = 
ORIGINATOR     = 

OBJECT_NAME    = SL-14 R/B
OBJECT_ID      = 1986-046B
CENTER_NAME    = EARTH
REF_FRAME      = TEME
TIME_SYSTEM    = UTC
MEAN_ELEMENT_THEORY = SGP/SGP4

EPOCH          = 2026-03-23T22:50:38.284800
MEAN_MOTION    = 14.85603412
ECCENTRICITY   = .00231153
INCLINATION    = 82.4795
RA_OF_ASC_NODE = 66.7017
ARG_OF_PERICENTER = 176.9661
MEAN_ANOMALY   = 183.1700

EPHEMERIS_TYPE = 0
CLASSIFICATION_TYPE = U
NORAD_CAT_ID   = 16792
ELEMENT_SET_NO = 999
REV_AT_EPOCH   = 12852
BSTAR          = .51859826E-4
MEAN_MOTION_DOT = .475E-5
MEAN_MOTION_DDOT = 0

CCSDS_OMM_VERS = 2.0
CREATION_DATE  = 
ORIGINATOR     = 

OBJECT_NAME    = SL-14 R/B
OBJECT_ID      = 1986-055B
CENTER_NAME    = EARTH
REF_FRAME      = TEME
TIME_SYSTEM    = UTC
MEAN_ELEMENT_THEORY = SGP/SGP4

EPOCH          = 2026-03-23T19:59:34.628352
MEAN_MOTION    = 14.85654513
ECCENTRICITY   = .00173735
INCLINATION    = 82.5177
RA_OF_ASC_NODE = 113.3778
ARG_OF_PERICENTER = 286.8009
MEAN_ANOMALY   = 246.0157

EPHEMERIS_TYPE = 0
CLASSIFICATION_TYPE = U
NORAD_CAT_ID   = 16882
ELEMENT_SET_NO = 999
REV_AT_EPOCH   = 12146
BSTAR          = .44089775E-4
MEAN_MOTION_DOT = .407E-5
MEAN_MOTION_DDOT = 0

CCSDS_OMM_VERS = 2.0
CREATION_DATE  = 
ORIGINATOR     = 

OBJECT_NAME    = AJISAI (EGS)
OBJECT_ID      = 1986-061A
CENTER_NAME    = EARTH
REF_FRAME      = TEME
TIME_SYSTEM    = UTC
MEAN_ELEMENT_THEORY = SGP/SGP4

EPOCH          = 2026-03-23T22:09:38.613312
MEAN_MOTION    = 12.44515658
ECCENTRICITY   = .00113168
INCLINATION    = 50.0101
RA_OF_ASC_NODE = 49.5773
ARG_OF_PERICENTER = 323.7086
MEAN_ANOMALY   = 76.6828

EPHEMERIS_TYPE = 0
CLASSIFICATION_TYPE = U
NORAD_CAT_ID   = 16908
ELEMENT_SET_NO = 999
REV_AT_EPOCH   = 46977
BSTAR          = -.60052881E-4
MEAN_MOTION_DOT = -.106E-5
MEAN_MOTION_DDOT = 0

CCSDS_OMM_VERS = 2.0
CREATION_DATE  = 
ORIGINATOR     = 

OBJECT_NAME    = SL-14 R/B
OBJECT_ID      = 1987-024B
CENTER_NAME    = EARTH
REF_FRAME      = TEME
TIME_SYSTEM    = UTC
MEAN_ELEMENT_THEORY = SGP/SGP4

EPOCH          = 2026-03-23T17:03:25.389792
MEAN_MOTION    = 14.86144680
ECCENTRICITY   = .00173639
INCLINATION    = 82.5248
RA_OF_ASC_NODE = 79.5811
ARG_OF_PERICENTER = 210.0218
MEAN_ANOMALY   = 150.0005

EPHEMERIS_TYPE = 0
CLASSIFICATION_TYPE = U
NORAD_CAT_ID   = 17567
ELEMENT_SET_NO = 999
REV_AT_EPOCH   = 9021
BSTAR          = .48966788E-4
MEAN_MOTION_DOT = .455E-5
MEAN_MOTION_DDOT = 0

CCSDS_OMM_VERS = 2.0
CREATION_DATE  = 
ORIGINATOR     = 

OBJECT_NAME    = COSMOS 1833
OBJECT_ID      = 1987-027A
CENTER_NAME    = EARTH
REF_FRAME      = TEME
TIME_SYSTEM    = UTC
MEAN_ELEMENT_THEORY = SGP/SGP4

EPOCH          = 2026-03-23T22:44:18.647520
MEAN_MOTION    = 14.13049773
ECCENTRICITY   = .00235205
INCLINATION    = 70.9183
RA_OF_ASC_NODE = 296.0520
ARG_OF_PERICENTER = 193.7899
MEAN_ANOMALY   = 166.2582

EPHEMERIS_TYPE = 0
CLASSIFICATION_TYPE = U
NORAD_CAT_ID   = 17589
ELEMENT_SET_NO = 999
REV_AT_EPOCH   = 1233
BSTAR          = -.12062849E-3
MEAN_MOTION_DOT = -.274E-5
MEAN_MOTION_DDOT = 0

CCSDS_OMM_VERS = 2.0
CREATION_DATE  = 
ORIGINATOR     = 

OBJECT_NAME    = SL-16 R/B
OBJECT_ID      = 1987-027B
CENTER_NAME    = EARTH
REF_FRAME      = TEME
TIME_SYSTEM    = UTC
MEAN_ELEMENT_THEORY = SGP/SGP4

EPOCH          = 2026-03-23T21:06:50.971968
MEAN_MOTION    = 14.17165995
ECCENTRICITY   = .00029289
INCLINATION    = 70.9995
RA_OF_ASC_NODE = 246.5901
ARG_OF_PERICENTER = 108.8764
MEAN_ANOMALY   = 251.2678

EPHEMERIS_TYPE = 0
CLASSIFICATION_TYPE = U
NORAD_CAT_ID   = 17590
ELEMENT_SET_NO = 999
REV_AT_EPOCH   = 1735
BSTAR          = -.735952E-4
MEAN_MOTION_DOT = -.196E-5
MEAN_MOTION_DDOT = 0

CCSDS_OMM_VERS = 2.0
CREATION_DATE  = 
ORIGINATOR     = 

OBJECT_NAME    = SL-14 R/B
OBJECT_ID      = 1987-038B
CENTER_NAME    = EARTH
REF_FRAME      = TEME
TIME_SYSTEM    = UTC
MEAN_ELEMENT_THEORY = SGP/SGP4

EPOCH          = 2026-03-23T20:20:34.067328
MEAN_MOTION    = 14.85381257
ECCENTRICITY   = .00206211
INCLINATION    = 82.4980
RA_OF_ASC_NODE = 283.4672
ARG_OF_PERICENTER = 115.9436
MEAN_ANOMALY   = 244.3908

EPHEMERIS_TYPE = 0
CLASSIFICATION_TYPE = U
NORAD_CAT_ID   = 17912
ELEMENT_SET_NO = 999
REV_AT_EPOCH   = 8133
BSTAR          = .4817228E-4
MEAN_MOTION_DOT = .441E-5
MEAN_MOTION_DDOT = 0

CCSDS_OMM_VERS = 2.0
CREATION_DATE  = 
ORIGINATOR     = 

OBJECT_NAME    = COSMOS 1844
OBJECT_ID      = 1987-041A
CENTER_NAME    = EARTH
REF_FRAME      = TEME
TIME_SYSTEM    = UTC
MEAN_ELEMENT_THEORY = SGP/SGP4

EPOCH          = 2026-03-23T23:13:08.384160
MEAN_MOTION    = 14.14553123
ECCENTRICITY   = .00307362
INCLINATION    = 70.9013
RA_OF_ASC_NODE = 4.0608
ARG_OF_PERICENTER = 357.0907
MEAN_ANOMALY   = 3.0031

EPHEMERIS_TYPE = 0
CLASSIFICATION_TYPE = U
NORAD_CAT_ID   = 17973
ELEMENT_SET_NO = 999
REV_AT_EPOCH   = 560
BSTAR          = .15684036E-3
MEAN_MOTION_DOT = .254E-5
MEAN_MOTION_DDOT = 0

CCSDS_OMM_VERS = 2.0
CREATION_DATE  = 
ORIGINATOR     = 

OBJECT_NAME    = SL-14 R/B
OBJECT_ID      = 1987-055B
CENTER_NAME    = EARTH
REF_FRAME      = TEME
TIME_SYSTEM    = UTC
MEAN_ELEMENT_THEORY = SGP/SGP4

EPOCH          = 2026-03-23T22:57:38.497248
MEAN_MOTION    = 14.85643586
ECCENTRICITY   = .00198798
INCLINATION    = 82.5016
RA_OF_ASC_NODE = 335.5879
ARG_OF_PERICENTER = 330.3648
MEAN_ANOMALY   = 29.6440

EPHEMERIS_TYPE = 0
CLASSIFICATION_TYPE = U
NORAD_CAT_ID   = 18153
ELEMENT_SET_NO = 999
REV_AT_EPOCH   = 7205
BSTAR          = .49851384E-4
MEAN_MOTION_DOT = .457E-5
MEAN_MOTION_DDOT = 0

CCSDS_OMM_VERS = 2.0
CREATION_DATE  = 
ORIGINATOR     = 

OBJECT_NAME    = COSMOS 1867
OBJECT_ID      = 1987-060A
CENTER_NAME    = EARTH
REF_FRAME      = TEME
TIME_SYSTEM    = UTC
MEAN_ELEMENT_THEORY = SGP/SGP4

EPOCH          = 2026-03-23T21:39:44.728128
MEAN_MOTION    = 14.31505089
ECCENTRICITY   = .00147102
INCLINATION    = 65.0091
RA_OF_ASC_NODE = 266.9005
ARG_OF_PERICENTER = 279.4803
MEAN_ANOMALY   = 80.4619

EPHEMERIS_TYPE = 0
CLASSIFICATION_TYPE = U
NORAD_CAT_ID   = 18187
ELEMENT_SET_NO = 999
REV_AT_EPOCH   = 2197
BSTAR          = .2230275E-4
MEAN_MOTION_DOT = -.41E-6
MEAN_MOTION_DDOT = 0

CCSDS_OMM_VERS = 2.0
CREATION_DATE  = 
ORIGINATOR     = 

OBJECT_NAME    = SL-14 R/B
OBJECT_ID      = 1988-001B
CENTER_NAME    = EARTH
REF_FRAME      = TEME
TIME_SYSTEM    = UTC
MEAN_ELEMENT_THEORY = SGP/SGP4

EPOCH          = 2026-03-23T19:38:22.876512
MEAN_MOTION    = 14.85543219
ECCENTRICITY   = .00178936
INCLINATION    = 82.5163
RA_OF_ASC_NODE = 182.0758
ARG_OF_PERICENTER = 186.9345
MEAN_ANOMALY   = 173.1627

EPHEMERIS_TYPE = 0
CLASSIFICATION_TYPE = U
NORAD_CAT_ID   = 18749
ELEMENT_SET_NO = 999
REV_AT_EPOCH   = 4412
BSTAR          = .58873913E-4
MEAN_MOTION_DOT = .534E-5
MEAN_MOTION_DDOT = 0

CCSDS_OMM_VERS = 2.0
CREATION_DATE  = 
ORIGINATOR     = 

OBJECT_NAME    = COSMOS 1933
OBJECT_ID      = 1988-020A
CENTER_NAME    = EARTH
REF_FRAME      = TEME
TIME_SYSTEM    = UTC
MEAN_ELEMENT_THEORY = SGP/SGP4

EPOCH          = 2026-03-23T21:30:25.651872
MEAN_MOTION    = 15.18114549
ECCENTRICITY   = .00050326
INCLINATION    = 82.5121
RA_OF_ASC_NODE = 236.8520
ARG_OF_PERICENTER = 138.6854
MEAN_ANOMALY   = 221.4761

EPHEMERIS_TYPE = 0
CLASSIFICATION_TYPE = U
NORAD_CAT_ID   = 18958
ELEMENT_SET_NO = 999
REV_AT_EPOCH   = 5238
BSTAR          = .25825028E-3
MEAN_MOTION_DOT = .5298E-4
MEAN_MOTION_DDOT = 0

